{
    "links": {
        "self": "http://www.neowsapp.com/rest/v1/neo/54054665?api_key=iIulBulltgU6a56xZRHN4H3l9WmuAYTsLGpBGhQ2"
    },
    "id": "54054665",
    "neo_reference_id": "54054665",
    "name": "(2020 SK5)",
    "designation": "2020 SK5",
    "nasa_jpl_url": "http://ssd.jpl.nasa.gov/sbdb.cgi?sstr=54054665",
    "absolute_magnitude_h": 23.039,
    "estimated_diameter": {
        "kilometers": {
            "estimated_diameter_min": 0.0655775182,
            "estimated_diameter_max": 0.1466357885
        },
        "meters": {
            "estimated_diameter_min": 65.5775181942,
            "estimated_diameter_max": 146.635788478
        },
        "miles": {
            "estimated_diameter_min": 0.0407479681,
            "estimated_diameter_max": 0.0911152265
        },
        "feet": {
            "estimated_diameter_min": 215.1493447923,
            "estimated_diameter_max": 481.0885602701
        }
    },
    "is_potentially_hazardous_asteroid": false,
    "close_approach_data": [
        {
            "close_approach_date": "1954-10-19",
            "close_approach_date_full": "1954-Oct-19 16:26",
            "epoch_date_close_approach": -479720040000,
            "relative_velocity": {
                "kilometers_per_second": "22.7017338174",
                "kilometers_per_hour": "81726.2417426562",
                "miles_per_hour": "50781.5083761521"
            },
            "miss_distance": {
                "astronomical": "0.385043658",
                "lunar": "149.781982962",
                "kilometers": "57601711.09380846",
                "miles": "35792043.574578348"
            },
            "orbiting_body": "Earth"
        },
        {
            "close_approach_date": "2020-09-19",
            "close_approach_date_full": "2020-Sep-19 19:59",
            "epoch_date_close_approach": 1600545540000,
            "relative_velocity": {
                "kilometers_per_second": "11.6367910199",
                "kilometers_per_hour": "41892.4476714748",
                "miles_per_hour": "26030.3378323116"
            },
            "miss_distance": {
                "astronomical": "0.0553431481",
                "lunar": "21.5284846109",
                "kilometers": "8279217.074854547",
                "miles": "5144466.9382128686"
            },
            "orbiting_body": "Earth"
        },
        {
            "close_approach_date": "2027-03-09",
            "close_approach_date_full": "2027-Mar-09 22:09",
            "epoch_date_close_approach": 1804630140000,
            "relative_velocity": {
                "kilometers_per_second": "4.1644062774",
                "kilometers_per_hour": "14991.8625987524",
                "miles_per_hour": "9315.3604019859"
            },
            "miss_distance": {
                "astronomical": "0.9590973659",
                "lunar": "373.0888753351",
                "kilometers": "143478923.061250633",
                "miles": "89153668.6797114154"
            },
            "orbiting_body": "Juptr"
        },
        {
            "close_approach_date": "2146-01-20",
            "close_approach_date_full": "2146-Jan-20 12:31",
            "epoch_date_close_approach": 5555737860000,
            "relative_velocity": {
                "kilometers_per_second": "5.7610637152",
                "kilometers_per_hour": "20739.829374804",
                "miles_per_hour": "12886.9234245831"
            },
            "miss_distance": {
                "astronomical": "1.4138566244",
                "lunar": "549.9902268916",
                "kilometers": "211509939.495630028",
                "miles": "131426182.0895412664"
            },
            "orbiting_body": "Juptr"
        }
    ],
    "orbital_data": {
        "orbit_id": "8",
        "orbit_determination_date": "2020-10-19 08:20:35",
        "first_observation_date": "2020-09-25",
        "last_observation_date": "2020-10-18",
        "data_arc_in_days": 23,
        "observations_used": 69,
        "orbit_uncertainty": "7",
        "minimum_orbit_intersection": ".00832468",
        "jupiter_tisserand_invariant": "3.048",
        "epoch_osculation": "2459000.5",
        "eccentricity": ".6350201009234512",
        "semi_major_axis": "2.682515790466448",
        "inclination": "2.829794209348184",
        "ascending_node_longitude": "156.1159779721292",
        "orbital_period": "1604.766528717727",
        "perihelion_distance": ".9790643424756929",
        "perihelion_argument": "168.4266091188298",
        "aphelion_distance": "4.385967238457204",
        "perihelion_time": "2459088.412518433000",
        "mean_anomaly": "340.2784354798524",
        "mean_motion": ".2243316978250129",
        "equinox": "J2000",
        "orbit_class": {
            "orbit_class_type": "APO",
            "orbit_class_description": "Near-Earth asteroid orbits which cross the Earth’s orbit similar to that of 1862 Apollo",
            "orbit_class_range": "a (semi-major axis) > 1.0 AU; q (perihelion) < 1.017 AU"
        }
    },
    "is_sentry_object": false
}